FLOCK 4G-18             
1 62680U 25009BZ  26095.17908845  .00014274  00000+0  52511-3 0  9996
2 62680  97.4025 177.3005 0004673 212.4569 147.6383 15.27971803125387
FLOCK 4G-17             
1 62681U 25009CA  26095.21822956  .00016320  00000+0  59770-3 0  9998
2 62681  97.3940 177.0797 0004071 215.0577 145.0395 15.28090489125409
FLOCK 4G-33             
1 62685U 25009CE  26095.21895694  .00009256  00000+0  37796-3 0  9995
2 62685  97.3961 175.9716 0004855 211.5036 148.5912 15.24607384 67687
PELICAN-3               
1 65315U 25188A   26095.17543445  .00012007  00000+0  29621-3 0  9991
2 65315  97.2200 172.4106 0005492 204.3225 155.7764 15.40665137 34078
PELICAN-4               
1 65316U 25188B   26095.19105208  .00009710  00000+0  24009-3 0  9997
2 65316  97.2277 172.5480 0004680 214.0040 146.0907 15.40657925 34078
PELICAN-5               
1 66667U 25276B   26095.16026310  .00017912  00000+0  65377-3 0  9994
2 66667  97.4193 170.4164 0002030 234.9094 125.1955 15.28189318 19368
PELICAN-6               
1 66703U 25276AP  26095.16727200  .00011616  00000+0  42185-3 0  9998
2 66703  97.4236 170.5657 0002389  83.8548 276.2964 15.28455497 19370
FLOCK 4H-1              
1 66704U 25276AQ  26095.17997302  .00008180  00000+0  38550-3 0  9995
2 66704  97.4203 170.0527 0002029 171.7359 188.3910 15.19753983 19346
FLOCK 4H-2              
1 66705U 25276AR  26095.17077629  .00009399  00000+0  43944-3 0  9993
2 66705  97.4203 170.0592 0001408 153.7169 206.4138 15.19990617 19349
FLOCK 4H-3              
1 66706U 25276AS  26095.23434757  .00008930  00000+0  42832-3 0  9995
2 66706  97.4272 170.0891 0002755 242.3117 117.7838 15.19117772 19346
FLOCK 4H-4              
1 66707U 25276AT  26095.18924546  .00008339  00000+0  40293-3 0  9992
2 66707  97.4255 169.9694 0003307 246.3641 113.7246 15.18881576 19333
FLOCK 4H-5              
1 66708U 25276AU  26095.17553627  .00008438  00000+0  39723-3 0  9996
2 66708  97.4207 170.0637 0001331 130.6206 229.5144 15.19782116 19343
FLOCK 4H-6              
1 66709U 25276AV  26095.20027339  .00009316  00000+0  44233-3 0  9995
2 66709  97.4259 170.1139 0002599 197.5802 162.5343 15.19456834 19342
FLOCK 4H-7              
1 66710U 25276AW  26095.16571491  .00009494  00000+0  45412-3 0  9992
2 66710  97.4215 169.9303 0000853 287.6627  72.4514 15.19194952 19330
FLOCK 4H-8              
1 66711U 25276AX  26095.22844976  .00010209  00000+0  48705-3 0  9995
2 66711  97.4255 170.0749 0002119 263.1405  96.9589 15.19266852 19345
FLOCK 4H-9              
1 66712U 25276AY  26095.19617465  .00009048  00000+0  42821-3 0  9995
2 66712  97.4244 170.1047 0002505 207.9174 152.1927 15.19577292 19348
