[{"OBJECT_NAME":"FLOCK 4G-18","OBJECT_ID":"2025-009BZ","EPOCH":"2026-04-05T04:17:53.242080","MEAN_MOTION":15.27971803,"ECCENTRICITY":0.00046734,"INCLINATION":97.4025,"RA_OF_ASC_NODE":177.3005,"ARG_OF_PERICENTER":212.4569,"MEAN_ANOMALY":147.6383,"EPHEMERIS_TYPE":0,"CLASSIFICATION_TYPE":"U","NORAD_CAT_ID":62680,"ELEMENT_SET_NO":999,"REV_AT_EPOCH":12538,"BSTAR":0.00052511396,"MEAN_MOTION_DOT":0.00014274,"MEAN_MOTION_DDOT":0},{"OBJECT_NAME":"FLOCK 4G-17","OBJECT_ID":"2025-009CA","EPOCH":"2026-04-05T05:14:15.033984","MEAN_MOTION":15.28090489,"ECCENTRICITY":0.0004071,"INCLINATION":97.394,"RA_OF_ASC_NODE":177.0797,"ARG_OF_PERICENTER":215.0577,"MEAN_ANOMALY":145.0395,"EPHEMERIS_TYPE":0,"CLASSIFICATION_TYPE":"U","NORAD_CAT_ID":62681,"ELEMENT_SET_NO":999,"REV_AT_EPOCH":12540,"BSTAR":0.00059770234,"MEAN_MOTION_DOT":0.0001632,"MEAN_MOTION_DDOT":0},{"OBJECT_NAME":"FLOCK 4G-33","OBJECT_ID":"2025-009CE","EPOCH":"2026-04-05T05:15:17.879616","MEAN_MOTION":15.24607384,"ECCENTRICITY":0.00048553,"INCLINATION":97.3961,"RA_OF_ASC_NODE":175.9716,"ARG_OF_PERICENTER":211.5036,"MEAN_ANOMALY":148.5912,"EPHEMERIS_TYPE":0,"CLASSIFICATION_TYPE":"U","NORAD_CAT_ID":62685,"ELEMENT_SET_NO":999,"REV_AT_EPOCH":6768,"BSTAR":0.00037795558,"MEAN_MOTION_DOT":9.256e-5,"MEAN_MOTION_DDOT":0},{"OBJECT_NAME":"PELICAN-3","OBJECT_ID":"2025-188A","EPOCH":"2026-04-05T04:12:37.536480","MEAN_MOTION":15.40665137,"ECCENTRICITY":0.00054923,"INCLINATION":97.22,"RA_OF_ASC_NODE":172.4106,"ARG_OF_PERICENTER":204.3225,"MEAN_ANOMALY":155.7764,"EPHEMERIS_TYPE":0,"CLASSIFICATION_TYPE":"U","NORAD_CAT_ID":65315,"ELEMENT_SET_NO":999,"REV_AT_EPOCH":3407,"BSTAR":0.00029621483,"MEAN_MOTION_DOT":0.00012007,"MEAN_MOTION_DDOT":0},{"OBJECT_NAME":"PELICAN-4","OBJECT_ID":"2025-188B","EPOCH":"2026-04-05T04:35:06.899712","MEAN_MOTION":15.40657925,"ECCENTRICITY":0.00046807,"INCLINATION":97.2277,"RA_OF_ASC_NODE":172.548,"ARG_OF_PERICENTER":214.004,"MEAN_ANOMALY":146.0907,"EPHEMERIS_TYPE":0,"CLASSIFICATION_TYPE":"U","NORAD_CAT_ID":65316,"ELEMENT_SET_NO":999,"REV_AT_EPOCH":3407,"BSTAR":0.00024008819,"MEAN_MOTION_DOT":9.71e-5,"MEAN_MOTION_DDOT":0},{"OBJECT_NAME":"PELICAN-5","OBJECT_ID":"2025-276B","EPOCH":"2026-04-05T03:50:46.731840","MEAN_MOTION":15.28189318,"ECCENTRICITY":0.00020309,"INCLINATION":97.4193,"RA_OF_ASC_NODE":170.4164,"ARG_OF_PERICENTER":234.9094,"MEAN_ANOMALY":125.1955,"EPHEMERIS_TYPE":0,"CLASSIFICATION_TYPE":"U","NORAD_CAT_ID":66667,"ELEMENT_SET_NO":999,"REV_AT_EPOCH":1936,"BSTAR":0.00065376644,"MEAN_MOTION_DOT":0.00017912,"MEAN_MOTION_DDOT":0},{"OBJECT_NAME":"PELICAN-6","OBJECT_ID":"2025-276AP","EPOCH":"2026-04-05T04:00:52.300800","MEAN_MOTION":15.28455497,"ECCENTRICITY":0.0002389,"INCLINATION":97.4236,"RA_OF_ASC_NODE":170.5657,"ARG_OF_PERICENTER":83.8548,"MEAN_ANOMALY":276.2964,"EPHEMERIS_TYPE":0,"CLASSIFICATION_TYPE":"U","NORAD_CAT_ID":66703,"ELEMENT_SET_NO":999,"REV_AT_EPOCH":1937,"BSTAR":0.00042185148,"MEAN_MOTION_DOT":0.00011616,"MEAN_MOTION_DDOT":0},{"OBJECT_NAME":"FLOCK 4H-1","OBJECT_ID":"2025-276AQ","EPOCH":"2026-04-05T04:19:09.668928","MEAN_MOTION":15.19753983,"ECCENTRICITY":0.00020291,"INCLINATION":97.4203,"RA_OF_ASC_NODE":170.0527,"ARG_OF_PERICENTER":171.7359,"MEAN_ANOMALY":188.391,"EPHEMERIS_TYPE":0,"CLASSIFICATION_TYPE":"U","NORAD_CAT_ID":66704,"ELEMENT_SET_NO":999,"REV_AT_EPOCH":1934,"BSTAR":0.00038549525,"MEAN_MOTION_DOT":8.18e-5,"MEAN_MOTION_DDOT":0},{"OBJECT_NAME":"FLOCK 4H-2","OBJECT_ID":"2025-276AR","EPOCH":"2026-04-05T04:05:55.071456","MEAN_MOTION":15.19990617,"ECCENTRICITY":0.00014084,"INCLINATION":97.4203,"RA_OF_ASC_NODE":170.0592,"ARG_OF_PERICENTER":153.7169,"MEAN_ANOMALY":206.4138,"EPHEMERIS_TYPE":0,"CLASSIFICATION_TYPE":"U","NORAD_CAT_ID":66705,"ELEMENT_SET_NO":999,"REV_AT_EPOCH":1934,"BSTAR":0.00043944472,"MEAN_MOTION_DOT":9.399e-5,"MEAN_MOTION_DDOT":0},{"OBJECT_NAME":"FLOCK 4H-3","OBJECT_ID":"2025-276AS","EPOCH":"2026-04-05T05:37:27.630048","MEAN_MOTION":15.19117772,"ECCENTRICITY":0.00027552,"INCLINATION":97.4272,"RA_OF_ASC_NODE":170.0891,"ARG_OF_PERICENTER":242.3117,"MEAN_ANOMALY":117.7838,"EPHEMERIS_TYPE":0,"CLASSIFICATION_TYPE":"U","NORAD_CAT_ID":66706,"ELEMENT_SET_NO":999,"REV_AT_EPOCH":1934,"BSTAR":0.00042831948,"MEAN_MOTION_DOT":8.93e-5,"MEAN_MOTION_DDOT":0},{"OBJECT_NAME":"FLOCK 4H-4","OBJECT_ID":"2025-276AT","EPOCH":"2026-04-05T04:32:30.807744","MEAN_MOTION":15.18881576,"ECCENTRICITY":0.00033076,"INCLINATION":97.4255,"RA_OF_ASC_NODE":169.9694,"ARG_OF_PERICENTER":246.3641,"MEAN_ANOMALY":113.7246,"EPHEMERIS_TYPE":0,"CLASSIFICATION_TYPE":"U","NORAD_CAT_ID":66707,"ELEMENT_SET_NO":999,"REV_AT_EPOCH":1933,"BSTAR":0.00040293369,"MEAN_MOTION_DOT":8.339e-5,"MEAN_MOTION_DDOT":0},{"OBJECT_NAME":"FLOCK 4H-5","OBJECT_ID":"2025-276AU","EPOCH":"2026-04-05T04:12:46.333728","MEAN_MOTION":15.19782116,"ECCENTRICITY":0.00013315,"INCLINATION":97.4207,"RA_OF_ASC_NODE":170.0637,"ARG_OF_PERICENTER":130.6206,"MEAN_ANOMALY":229.5144,"EPHEMERIS_TYPE":0,"CLASSIFICATION_TYPE":"U","NORAD_CAT_ID":66708,"ELEMENT_SET_NO":999,"REV_AT_EPOCH":1934,"BSTAR":0.00039723261,"MEAN_MOTION_DOT":8.438e-5,"MEAN_MOTION_DDOT":0},{"OBJECT_NAME":"FLOCK 4H-6","OBJECT_ID":"2025-276AV","EPOCH":"2026-04-05T04:48:23.620896","MEAN_MOTION":15.19456834,"ECCENTRICITY":0.00025996,"INCLINATION":97.4259,"RA_OF_ASC_NODE":170.1139,"ARG_OF_PERICENTER":197.5802,"MEAN_ANOMALY":162.5343,"EPHEMERIS_TYPE":0,"CLASSIFICATION_TYPE":"U","NORAD_CAT_ID":66709,"ELEMENT_SET_NO":999,"REV_AT_EPOCH":1934,"BSTAR":0.00044232868,"MEAN_MOTION_DOT":9.316e-5,"MEAN_MOTION_DDOT":0},{"OBJECT_NAME":"FLOCK 4H-7","OBJECT_ID":"2025-276AW","EPOCH":"2026-04-05T03:58:37.768224","MEAN_MOTION":15.19194952,"ECCENTRICITY":8.533e-5,"INCLINATION":97.4215,"RA_OF_ASC_NODE":169.9303,"ARG_OF_PERICENTER":287.6627,"MEAN_ANOMALY":72.4514,"EPHEMERIS_TYPE":0,"CLASSIFICATION_TYPE":"U","NORAD_CAT_ID":66710,"ELEMENT_SET_NO":999,"REV_AT_EPOCH":1933,"BSTAR":0.00045412248,"MEAN_MOTION_DOT":9.494e-5,"MEAN_MOTION_DDOT":0},{"OBJECT_NAME":"FLOCK 4H-8","OBJECT_ID":"2025-276AX","EPOCH":"2026-04-05T05:28:58.059264","MEAN_MOTION":15.19266852,"ECCENTRICITY":0.00021197,"INCLINATION":97.4255,"RA_OF_ASC_NODE":170.0749,"ARG_OF_PERICENTER":263.1405,"MEAN_ANOMALY":96.9589,"EPHEMERIS_TYPE":0,"CLASSIFICATION_TYPE":"U","NORAD_CAT_ID":66711,"ELEMENT_SET_NO":999,"REV_AT_EPOCH":1934,"BSTAR":0.00048705078,"MEAN_MOTION_DOT":0.00010209,"MEAN_MOTION_DDOT":0},{"OBJECT_NAME":"FLOCK 4H-9","OBJECT_ID":"2025-276AY","EPOCH":"2026-04-05T04:42:29.489760","MEAN_MOTION":15.19577292,"ECCENTRICITY":0.00025059,"INCLINATION":97.4244,"RA_OF_ASC_NODE":170.1047,"ARG_OF_PERICENTER":207.9174,"MEAN_ANOMALY":152.1927,"EPHEMERIS_TYPE":0,"CLASSIFICATION_TYPE":"U","NORAD_CAT_ID":66712,"ELEMENT_SET_NO":999,"REV_AT_EPOCH":1934,"BSTAR":0.0004282104,"MEAN_MOTION_DOT":9.048e-5,"MEAN_MOTION_DDOT":0}]
